ONEWEB-0258             
1 48976U 21060K   24330.11509639  .00000180  00000+0  43799-3 0  9992
2 48976  87.9088 342.1711 0001725  92.8924 267.2404 13.16597244165991
ONEWEB-0259             
1 48977U 21060L   24330.10876279  .00000114  00000+0  26352-3 0  9992
2 48977  87.9087 342.1570 0001587  91.8748 268.2565 13.16597064166038
ONEWEB-0260             
1 48978U 21060M   24329.49208393  .00000097  00000+0  22101-3 0  9997
2 48978  87.9088 342.3088 0002362  90.4578 269.6824 13.16593949164640
ONEWEB-0261             
1 48979U 21060N   24330.06946863 -.00000052  00000+0 -17025-3 0  9996
2 48979  87.9094 342.1919 0001989  79.7359 280.3996 13.16520933166072
ONEWEB-0262             
1 48980U 21060P   24330.05022271  .00000010  00000+0 -69964-5 0  9999
2 48980  87.9086 342.1553 0001452  86.2496 273.8801 13.16595873166032
ONEWEB-0263             
1 48981U 21060Q   24330.08185248 -.00000003  00000+0 -41652-4 0  9993
2 48981  87.9093 342.1698 0001681  78.6984 281.4336 13.16595202166003
ONEWEB-0264             
1 48982U 21060R   24330.11905521  .00000118  00000+0  27632-3 0  9998
2 48982  87.9088 342.1732 0001799  89.2060 270.9277 13.16597733166008
ONEWEB-0266             
1 48984U 21060T   24330.06443492  .00000019  00000+0  15298-4 0  9994
2 48984  87.9089 342.1577 0001797 102.7152 257.4179 13.16595229165995
